[{"OBJECT_NAME":"STARLINK-34876","OBJECT_ID":"2025-191X","EPOCH":"2026-03-09T15:01:24.415392","MEAN_MOTION":15.05648669,"ECCENTRICITY":0.0002783,"INCLINATION":97.6021,"RA_OF_ASC_NODE":301.5241,"ARG_OF_PERICENTER":61.0245,"MEAN_ANOMALY":299.126,"EPHEMERIS_TYPE":0,"CLASSIFICATION_TYPE":"U","NORAD_CAT_ID":65400,"ELEMENT_SET_NO":999,"REV_AT_EPOCH":3026,"BSTAR":0.00011956,"MEAN_MOTION_DOT":1.665e-5,"MEAN_MOTION_DDOT":0},{"OBJECT_NAME":"ELECTRON KICK STAGE R\/B","OBJECT_ID":"2024-114G","EPOCH":"2026-03-09T16:42:35.427168","MEAN_MOTION":15.12630878,"ECCENTRICITY":0.00674954,"INCLINATION":97.9507,"RA_OF_ASC_NODE":118.387,"ARG_OF_PERICENTER":79.3604,"MEAN_ANOMALY":281.5218,"EPHEMERIS_TYPE":0,"CLASSIFICATION_TYPE":"U","NORAD_CAT_ID":60085,"ELEMENT_SET_NO":999,"REV_AT_EPOCH":9434,"BSTAR":0.00053349816,"MEAN_MOTION_DOT":9.787e-5,"MEAN_MOTION_DDOT":0}]
